[{"OBJECT_NAME":"STARLINK-34944","OBJECT_ID":"2025-175J","EPOCH":"2026-03-09T15:43:14.390688","MEAN_MOTION":15.05675437,"ECCENTRICITY":0.0002662,"INCLINATION":97.6021,"RA_OF_ASC_NODE":302.5977,"ARG_OF_PERICENTER":94.9701,"MEAN_ANOMALY":265.183,"EPHEMERIS_TYPE":0,"CLASSIFICATION_TYPE":"U","NORAD_CAT_ID":65182,"ELEMENT_SET_NO":999,"REV_AT_EPOCH":3263,"BSTAR":0.00099185,"MEAN_MOTION_DOT":0.0001429,"MEAN_MOTION_DDOT":0},{"OBJECT_NAME":"PSLV DEB","OBJECT_ID":"2001-049NA","EPOCH":"2026-03-08T15:04:56.759808","MEAN_MOTION":15.08740413,"ECCENTRICITY":0.00254054,"INCLINATION":98.314,"RA_OF_ASC_NODE":131.3874,"ARG_OF_PERICENTER":357.4644,"MEAN_ANOMALY":2.6449,"EPHEMERIS_TYPE":0,"CLASSIFICATION_TYPE":"U","NORAD_CAT_ID":27582,"ELEMENT_SET_NO":999,"REV_AT_EPOCH":27774,"BSTAR":0.00086862236,"MEAN_MOTION_DOT":0.0001368,"MEAN_MOTION_DDOT":0}]
